[
    {
        "Altitude(m)": 591809.1534036623,
        "Argument of Periapsis(deg)": -0.022603160782972403,
        "Eccentricity": 0.0,
        "Inclination(deg)": 97.0,
        "Latitude(deg)": -82.88304743327728,
        "Longitude(deg)": 65.6309827692603,
        "Mean Anomaly(deg)": -88.48575673081253,
        "RAAN(deg)": 90.0059470536185,
        "Satellite Name": "Starlink Shell 3 1796",
        "Satellite Number": 1796,
        "Semi-Major Axis(m)": 6938478.169268562,
        "Time(s)": 570
    },
    {
        "Altitude(m)": 591794.3366848709,
        "Argument of Periapsis(deg)": -0.02299970746337543,
        "Eccentricity": 0.0,
        "Inclination(deg)": 97.0,
        "Latitude(deg)": -82.72966375081538,
        "Longitude(deg)": 60.79166334463267,
        "Mean Anomaly(deg)": -87.86028053310753,
        "RAAN(deg)": 90.00605138789253,
        "Satellite Name": "Starlink Shell 3 1796",
        "Satellite Number": 1796,
        "Semi-Major Axis(m)": 6938478.169268562,
        "Time(s)": 580
    },
    {
        "Altitude(m)": 591774.4214708221,
        "Argument of Periapsis(deg)": -0.023396254143778456,
        "Eccentricity": 0.0,
        "Inclination(deg)": 97.0,
        "Latitude(deg)": -82.52810379849265,
        "Longitude(deg)": 56.17949200736602,
        "Mean Anomaly(deg)": -87.2348043354024,
        "RAAN(deg)": 90.00615572216653,
        "Satellite Name": "Starlink Shell 3 1796",
        "Satellite Number": 1796,
        "Semi-Major Axis(m)": 6938478.169268562,
        "Time(s)": 590
    },
    {
        "Altitude(m)": 591749.4158072121,
        "Argument of Periapsis(deg)": -0.023792800824181483,
        "Eccentricity": 0.0,
        "Inclination(deg)": 97.0,
        "Latitude(deg)": -82.28213879998255,
        "Longitude(deg)": 51.83132761510827,
        "Mean Anomaly(deg)": -86.6093281376974,
        "RAAN(deg)": 90.00626005644054,
        "Satellite Name": "Starlink Shell 3 1796",
        "Satellite Number": 1796,
        "Semi-Major Axis(m)": 6938478.169268562,
        "Time(s)": 600
    },
    {
        "Altitude(m)": 591719.3298016574,
        "Argument of Periapsis(deg)": -0.024189347504584503,
        "Eccentricity": 0.0,
        "Inclination(deg)": 97.0,
        "Latitude(deg)": -81.99585849841043,
        "Longitude(deg)": 47.76826030528983,
        "Mean Anomaly(deg)": -85.9838519399924,
        "RAAN(deg)": 90.00636439071454,
        "Satellite Name": "Starlink Shell 3 1796",
        "Satellite Number": 1796,
        "Semi-Major Axis(m)": 6938478.169268562,
        "Time(s)": 610
    },
    {
        "Altitude(m)": 591684.1756194534,
        "Argument of Periapsis(deg)": -0.02458589418498753,
        "Eccentricity": 0.0,
        "Inclination(deg)": 97.0,
        "Latitude(deg)": -81.6734168324259,
        "Longitude(deg)": 43.99768240056284,
        "Mean Anomaly(deg)": -85.35837574228734,
        "RAAN(deg)": 90.00646872498854,
        "Satellite Name": "Starlink Shell 3 1796",
        "Satellite Number": 1796,
        "Semi-Major Axis(m)": 6938478.169268562,
        "Time(s)": 620
    },
    {
        "Altitude(m)": 591643.9674784442,
        "Argument of Periapsis(deg)": -0.024982440865390556,
        "Eccentricity": 0.0,
        "Inclination(deg)": 97.0,
        "Latitude(deg)": -81.31883853425333,
        "Longitude(deg)": 40.516216871364385,
        "Mean Anomaly(deg)": -84.73289954458228,
        "RAAN(deg)": 90.00657305926256,
        "Satellite Name": "Starlink Shell 3 1796",
        "Satellite Number": 1796,
        "Semi-Major Axis(m)": 6938478.169268562,
        "Time(s)": 630
    },
    {
        "Altitude(m)": 591598.7216430348,
        "Argument of Periapsis(deg)": -0.025378987545793576,
        "Eccentricity": 0.0,
        "Inclination(deg)": 97.0,
        "Latitude(deg)": -80.93589019423908,
        "Longitude(deg)": 37.31278816453399,
        "Mean Anomaly(deg)": -84.10742334687721,
        "RAAN(deg)": 90.00667739353656,
        "Satellite Name": "Starlink Shell 3 1796",
        "Satellite Number": 1796,
        "Semi-Major Axis(m)": 6938478.169268562,
        "Time(s)": 640
    },
    {
        "Altitude(m)": 591548.4564173308,
        "Argument of Periapsis(deg)": -0.025775534226196602,
        "Eccentricity": 0.0,
        "Inclination(deg)": 97.0,
        "Latitude(deg)": -80.52800776275163,
        "Longitude(deg)": 34.37136964228841,
        "Mean Anomaly(deg)": -83.48194714917216,
        "RAAN(deg)": 90.00678172781058,
        "Satellite Name": "Starlink Shell 3 1796",
        "Satellite Number": 1796,
        "Semi-Major Axis(m)": 6938478.169268562,
        "Time(s)": 650
    },
    {
        "Altitude(m)": 591493.1921374343,
        "Argument of Periapsis(deg)": -0.026172080906599626,
        "Eccentricity": 0.0,
        "Inclination(deg)": 97.0,
        "Latitude(deg)": -80.09826743252013,
        "Longitude(deg)": 31.673199278218988,
        "Mean Anomaly(deg)": -82.85647095146716,
        "RAAN(deg)": 90.0068860620846,
        "Satellite Name": "Starlink Shell 3 1796",
        "Satellite Number": 1796,
        "Semi-Major Axis(m)": 6938478.169268562,
        "Time(s)": 660
    },
    {
        "Altitude(m)": 591432.951162885,
        "Argument of Periapsis(deg)": -0.026568627587002652,
        "Eccentricity": 0.0,
        "Inclination(deg)": 97.0,
        "Latitude(deg)": -79.6493864585944,
        "Longitude(deg)": 29.198425637004956,
        "Mean Anomaly(deg)": -82.2309947537621,
        "RAAN(deg)": 90.0069903963586,
        "Satellite Name": "Starlink Shell 3 1796",
        "Satellite Number": 1796,
        "Semi-Major Axis(m)": 6938478.169268562,
        "Time(s)": 670
    },
    {
        "Altitude(m)": 591367.7578671902,
        "Argument of Periapsis(deg)": -0.02696517426740568,
        "Eccentricity": 0.0,
        "Inclination(deg)": 97.0,
        "Latitude(deg)": -79.18374251689183,
        "Longitude(deg)": 26.927244271607094,
        "Mean Anomaly(deg)": -81.60551855605704,
        "RAAN(deg)": 90.0070947306326,
        "Satellite Name": "Starlink Shell 3 1796",
        "Satellite Number": 1796,
        "Semi-Major Axis(m)": 6938478.169268562,
        "Time(s)": 680
    },
    {
        "Altitude(m)": 591297.6386275573,
        "Argument of Periapsis(deg)": -0.0273617209478087,
        "Eccentricity": 0.0,
        "Inclination(deg)": 97.0,
        "Latitude(deg)": -78.70340303319949,
        "Longitude(deg)": 24.840628029757152,
        "Mean Anomaly(deg)": -80.98004235835198,
        "RAAN(deg)": 90.00719906490663,
        "Satellite Name": "Starlink Shell 3 1796",
        "Satellite Number": 1796,
        "Semi-Major Axis(m)": 6938478.169268562,
        "Time(s)": 690
    },
    {
        "Altitude(m)": 591222.6218137805,
        "Argument of Periapsis(deg)": -0.027758267628211725,
        "Eccentricity": 0.0,
        "Inclination(deg)": 97.0,
        "Latitude(deg)": -78.21015859935734,
        "Longitude(deg)": 22.920753506904386,
        "Mean Anomaly(deg)": -80.35456616064693,
        "RAAN(deg)": 90.00730339918063,
        "Satellite Name": "Starlink Shell 3 1796",
        "Satellite Number": 1796,
        "Semi-Major Axis(m)": 6938478.169268562,
        "Time(s)": 700
    },
    {
        "Altitude(m)": 591142.7377762315,
        "Argument of Periapsis(deg)": -0.028154814308614752,
        "Eccentricity": 0.0,
        "Inclination(deg)": 97.0,
        "Latitude(deg)": -77.7055567551013,
        "Longitude(deg)": 21.15121219303683,
        "Mean Anomaly(deg)": -79.72908996294193,
        "RAAN(deg)": 90.00740773345464,
        "Satellite Name": "Starlink Shell 3 1796",
        "Satellite Number": 1796,
        "Semi-Major Axis(m)": 6938478.169268562,
        "Time(s)": 710
    },
    {
        "Altitude(m)": 591058.0188330514,
        "Argument of Periapsis(deg)": -0.02855136098901778,
        "Eccentricity": 0.0,
        "Inclination(deg)": 97.0,
        "Latitude(deg)": -77.19093398494206,
        "Longitude(deg)": 19.517080290561406,
        "Mean Anomaly(deg)": -79.10361376523687,
        "RAAN(deg)": 90.00751206772864,
        "Satellite Name": "Starlink Shell 3 1796",
        "Satellite Number": 1796,
        "Semi-Major Axis(m)": 6938478.169268562,
        "Time(s)": 720
    },
    {
        "Altitude(m)": 590968.4992564821,
        "Argument of Periapsis(deg)": -0.028947907669420805,
        "Eccentricity": 0.0,
        "Inclination(deg)": 97.0,
        "Latitude(deg)": -76.66744484034226,
        "Longitude(deg)": 18.004898122309356,
        "Mean Anomaly(deg)": -78.4781375675318,
        "RAAN(deg)": 90.00761640200267,
        "Satellite Name": "Starlink Shell 3 1796",
        "Satellite Number": 1796,
        "Semi-Major Axis(m)": 6938478.169268562,
        "Time(s)": 730
    },
    {
        "Altitude(m)": 590874.2152583785,
        "Argument of Periapsis(deg)": -0.029344454349823825,
        "Eccentricity": 0.0,
        "Inclination(deg)": 97.0,
        "Latitude(deg)": -76.1360877696287,
        "Longitude(deg)": 16.60259456431676,
        "Mean Anomaly(deg)": -77.85266136982675,
        "RAAN(deg)": 90.00772073627667,
        "Satellite Name": "Starlink Shell 3 1796",
        "Satellite Number": 1796,
        "Semi-Major Axis(m)": 6938478.169268562,
        "Time(s)": 740
    },
    {
        "Altitude(m)": 590775.2049748793,
        "Argument of Periapsis(deg)": -0.029741001030226845,
        "Eccentricity": 0.0,
        "Inclination(deg)": 97.0,
        "Latitude(deg)": -75.59772763698874,
        "Longitude(deg)": 15.299384557227743,
        "Mean Anomaly(deg)": -77.2271851721217,
        "RAAN(deg)": 90.00782507055067,
        "Satellite Name": "Starlink Shell 3 1796",
        "Satellite Number": 1796,
        "Semi-Major Axis(m)": 6938478.169268562,
        "Time(s)": 750
    }
]